XRISM                   
1 57800U 23137A   23294.88420067  .00004778  00000+0  38524-3 0  9991
2 57800  31.0028  92.3022 0010403   0.5448 359.5197 14.98308597  6653
